{"type":"FeatureCollection", "features": [
{"type":"Feature","geometry":{"type":"Polygon","coordinates":[[[95.234,26.682],[95.431,26.7],[95.543,26.835],[95.745,26.896],[95.802,27.015],[95.946,27.051],[96.022,27.18],[96.307,27.294],[96.519,27.287],[96.606,27.366],[96.797,27.346],[96.857,27.192],[97.138,27.091],[97.164,27.142],[96.903,27.454],[96.903,27.614],[97.253,27.901],[97.385,27.887],[97.411,28.015],[97.308,28.062],[97.372,28.218],[97.123,28.349],[96.994,28.31],[96.772,28.368],[96.663,28.46],[96.421,28.346],[96.273,28.419],[96.323,28.526],[96.585,28.717],[96.607,28.794],[96.477,28.99],[96.347,29.029],[96.166,28.903],[96.115,29.075],[96.347,29.168],[96.376,29.281],[96.235,29.241],[96.082,29.462],[95.779,29.355],[95.546,29.214],[95.455,29.035],[95.252,29.109],[94.8,29.164],[94.631,29.348],[94.56,29.229],[94.434,29.227],[94.217,29.084],[93.997,28.841],[93.921,28.67],[93.846,28.707],[93.339,28.64],[93.183,28.432],[93.195,28.317],[93.024,28.3],[92.682,28.118],[92.741,27.989],[92.562,27.82],[92.309,27.779],[92.257,27.862],[91.921,27.715],[91.83,27.807],[91.631,27.801],[91.564,27.584],[91.655,27.483],[92.02,27.479],[92.118,27.292],[92.026,27.171],[92.112,26.892],[92.589,26.962],[92.672,27.032],[92.884,27],[93.021,26.914],[93.657,26.966],[93.836,27.074],[93.796,27.13],[94.157,27.475],[94.211,27.602],[94.462,27.555],[94.852,27.728],[95.309,27.868],[95.379,27.839],[95.605,27.955],[95.971,27.963],[95.754,27.726],[95.876,27.547],[95.842,27.427],[95.96,27.312],[95.587,27.223],[95.195,27.031],[95.234,26.682]]]},"properties":{"state":"Arunachal Pradesh"}},
{"type":"Feature","geometry":{"type":"Polygon","coordinates":[[[95.195,27.031],[95.587,27.223],[95.96,27.312],[95.842,27.427],[95.876,27.547],[95.754,27.726],[95.971,27.963],[95.605,27.955],[95.379,27.839],[95.309,27.868],[94.852,27.728],[94.462,27.555],[94.211,27.602],[94.157,27.475],[93.796,27.13],[93.836,27.074],[93.657,26.966],[93.021,26.914],[92.884,27],[92.672,27.032],[92.589,26.962],[92.112,26.892],[91.893,26.919],[91.721,26.812],[91.337,26.781],[91.098,26.822],[90.693,26.771],[90.418,26.904],[90.231,26.859],[90.195,26.774],[89.852,26.697],[89.869,26.452],[89.75,26.32],[89.72,26.166],[89.887,25.945],[89.827,25.741],[89.854,25.467],[90.02,25.608],[89.896,25.732],[90.117,25.957],[90.476,26.01],[90.628,25.918],[90.948,25.948],[91.001,25.825],[91.203,25.844],[91.222,25.723],[91.445,25.84],[91.571,26.026],[91.671,25.904],[91.821,26.118],[91.914,25.999],[92.169,26.078],[92.164,25.667],[92.415,25.741],[92.643,25.535],[92.574,25.491],[92.762,25.333],[92.776,25.2],[92.525,25.135],[92.425,25.03],[92.488,24.871],[92.237,24.903],[92.296,24.737],[92.212,24.504],[92.292,24.25],[92.422,24.255],[92.472,24.14],[92.685,24.347],[92.764,24.521],[92.83,24.4],[93.009,24.412],[93.109,24.811],[93.191,24.804],[93.264,25.049],[93.454,25.325],[93.455,25.434],[93.327,25.545],[93.496,25.655],[93.775,25.97],[93.79,25.811],[93.979,25.917],[93.994,26.148],[94.185,26.459],[94.295,26.469],[94.52,26.698],[94.694,26.733],[94.924,26.947],[94.982,26.913],[95.195,27.031]]]},"properties":{"state":"Assam"}},
{"type":"Feature","geometry":{"type":"Polygon","coordinates":[[[76.838,30.755],[76.705,30.743],[76.829,30.681],[76.838,30.755]]]},"properties":{"state":"Chandigarh"}},
{"type":"Feature","geometry":{"type":"Polygon","coordinates":[[[77.551,18.292],[77.357,18.32],[77.366,18.452],[77.242,18.413],[77.113,18.157],[76.952,18.188],[76.919,17.916],[76.331,17.596],[76.345,17.354],[76.12,17.37],[75.926,17.325],[75.633,17.477],[75.574,17.383],[75.654,17.274],[75.666,16.98],[75.28,16.957],[75.183,16.843],[75.089,16.952],[74.968,16.95],[74.92,16.773],[74.691,16.716],[74.687,16.607],[74.545,16.635],[74.316,16.554],[74.317,16.327],[74.503,16.225],[74.368,15.786],[74.126,15.718],[74.118,15.652],[74.252,15.654],[74.326,15.283],[74.297,15.041],[74.086,14.901],[74.15,14.751],[74.25,14.739],[74.47,14.188],[74.515,13.987],[74.609,13.861],[74.71,13.332],[74.87,12.761],[75.161,12.673],[75.366,12.457],[75.431,12.308],[75.83,11.984],[76.003,11.931],[76.112,11.979],[76.431,11.666],[76.856,11.599],[76.908,11.795],[77.45,11.796],[77.493,11.941],[77.676,11.952],[77.776,12.119],[77.731,12.18],[77.472,12.21],[77.62,12.383],[77.599,12.667],[77.761,12.697],[77.796,12.835],[77.936,12.887],[78.231,12.761],[78.251,12.857],[78.467,12.975],[78.587,13.281],[78.378,13.363],[78.407,13.577],[78.09,13.659],[78.115,13.863],[77.967,13.96],[77.455,13.682],[77.433,13.843],[77.132,13.846],[77.173,13.762],[76.976,13.817],[77.042,13.933],[76.895,14.168],[77.005,14.184],[77.141,14.004],[77.332,14.031],[77.504,14.264],[77.139,14.34],[77.115,14.223],[76.94,14.245],[76.885,14.348],[76.975,14.485],[76.868,14.474],[76.765,14.602],[76.867,14.97],[76.802,15.095],[76.985,15.015],[77.113,15.034],[77.168,15.259],[77.045,15.356],[77.03,15.635],[77.07,15.908],[77.249,15.965],[77.513,15.927],[77.505,16.276],[77.588,16.333],[77.288,16.409],[77.461,16.585],[77.419,16.669],[77.502,17.009],[77.362,17.164],[77.513,17.431],[77.689,17.475],[77.443,17.584],[77.452,17.695],[77.648,17.999],[77.551,18.292]]]},"properties":{"state":"Karnataka"}},
{"type":"Feature","geometry":{"type":"Polygon","coordinates":[[[94.675,25.446],[94.554,25.503],[94.59,25.687],[94.418,25.538],[94.222,25.491],[94.022,25.59],[93.767,25.534],[93.81,25.484],[93.605,25.199],[93.454,25.325],[93.264,25.049],[93.191,24.804],[93.109,24.811],[93.009,24.412],[92.973,24.112],[93.326,24.049],[93.471,23.965],[93.754,24.005],[93.819,23.924],[94.016,23.927],[94.157,23.848],[94.26,24.165],[94.454,24.565],[94.605,24.716],[94.714,24.936],[94.736,25.135],[94.576,25.214],[94.675,25.446]]]},"properties":{"state":"Manipur"}},
{"type":"Feature","geometry":{"type":"Polygon","coordinates":[[[92.425,25.03],[92.525,25.135],[92.776,25.2],[92.762,25.333],[92.574,25.491],[92.643,25.535],[92.415,25.741],[92.164,25.667],[92.169,26.078],[91.914,25.999],[91.821,26.118],[91.671,25.904],[91.571,26.026],[91.445,25.84],[91.222,25.723],[91.203,25.844],[91.001,25.825],[90.948,25.948],[90.628,25.918],[90.476,26.01],[90.117,25.957],[89.896,25.732],[90.02,25.608],[89.854,25.467],[89.814,25.37],[90.112,25.224],[90.445,25.144],[91.252,25.198],[91.471,25.136],[91.603,25.174],[92.075,25.186],[92.425,25.03]]]},"properties":{"state":"Meghalaya"}},
{"type":"Feature","geometry":{"type":"Polygon","coordinates":[[[93.009,24.412],[92.83,24.4],[92.764,24.521],[92.685,24.347],[92.472,24.14],[92.422,24.255],[92.292,24.25],[92.332,24.152],[92.265,23.725],[92.4,23.236],[92.346,23.237],[92.371,22.937],[92.505,22.739],[92.607,21.975],[92.695,22.154],[93.001,21.978],[93.046,22.203],[93.199,22.256],[93.091,22.704],[93.127,23.044],[93.314,23.021],[93.436,23.678],[93.326,24.049],[92.973,24.112],[93.009,24.412]]]},"properties":{"state":"Mizoram"}},
{"type":"Feature","geometry":{"type":"Polygon","coordinates":[[[95.195,27.031],[94.982,26.913],[94.924,26.947],[94.694,26.733],[94.52,26.698],[94.295,26.469],[94.185,26.459],[93.994,26.148],[93.979,25.917],[93.79,25.811],[93.775,25.97],[93.496,25.655],[93.327,25.545],[93.455,25.434],[93.454,25.325],[93.605,25.199],[93.81,25.484],[93.767,25.534],[94.022,25.59],[94.222,25.491],[94.418,25.538],[94.59,25.687],[94.554,25.503],[94.675,25.446],[94.898,25.566],[95.05,25.793],[95.009,25.867],[95.186,26.073],[95.118,26.101],[95.132,26.378],[95.073,26.473],[95.234,26.682],[95.195,27.031]]]},"properties":{"state":"Nagaland"}},
{"type":"Feature","geometry":{"type":"Polygon","coordinates":[[[76.777,30.904],[76.625,30.999],[76.612,31.25],[76.372,31.408],[76.275,31.301],[76.017,31.634],[75.892,31.962],[75.601,32.093],[75.618,32.237],[75.921,32.429],[75.858,32.484],[75.845,32.507],[75.834,32.512],[75.832,32.511],[75.832,32.503],[75.827,32.505],[75.826,32.5],[75.823,32.495],[75.778,32.466],[75.73,32.453],[75.687,32.391],[75.376,32.335],[75.24,32.091],[74.927,32.066],[74.819,31.959],[74.608,31.89],[74.487,31.715],[74.653,31.455],[74.554,31.367],[74.51,31.132],[74.671,31.054],[74.416,30.94],[74.275,30.737],[73.928,30.466],[73.88,30.36],[73.973,30.198],[73.896,29.974],[74.527,29.943],[74.654,29.906],[74.806,29.992],[74.99,29.868],[75.21,29.833],[75.235,29.542],[75.462,29.808],[75.58,29.739],[75.835,29.814],[75.984,29.727],[76.244,29.852],[76.186,29.892],[76.21,30.155],[76.547,30.076],[76.603,30.252],[76.886,30.43],[76.926,30.61],[76.829,30.681],[76.705,30.743],[76.838,30.755],[76.777,30.904]]]},"properties":{"state":"Punjab"}},
{"type":"Feature","geometry":{"type":"Polygon","coordinates":[[[74.527,29.943],[73.896,29.974],[73.973,30.198],[73.806,30.068],[73.397,29.946],[73.282,29.572],[72.945,29.028],[72.404,28.783],[72.299,28.67],[72.206,28.394],[71.928,28.122],[71.898,27.962],[71.666,27.878],[71.205,27.835],[70.906,27.71],[70.759,27.721],[70.677,27.922],[70.505,28.037],[70.372,28.012],[70.132,27.806],[70.026,27.563],[69.587,27.184],[69.513,27.01],[69.51,26.744],[69.886,26.579],[70.174,26.551],[70.175,26.252],[70.083,26.083],[70.1,25.938],[70.268,25.714],[70.674,25.676],[70.665,25.397],[70.888,25.148],[70.937,24.939],[71.112,24.676],[71.299,24.624],[71.478,24.68],[71.731,24.66],[71.736,24.66],[71.939,24.636],[71.94,24.636],[72.085,24.707],[72.165,24.621],[72.681,24.465],[72.733,24.364],[72.978,24.373],[73.086,24.498],[73.152,24.354],[73.067,24.195],[73.165,24.096],[73.167,24.095],[73.239,24.004],[73.327,24.11],[73.42,23.925],[73.354,23.852],[73.523,23.607],[73.656,23.621],[73.627,23.448],[73.819,23.438],[74.139,23.266],[74.324,23.061],[74.539,23.103],[74.677,23.274],[74.544,23.28],[74.575,23.423],[74.905,23.625],[74.929,23.954],[74.868,24.243],[74.778,24.239],[74.854,24.444],[74.709,24.486],[74.814,24.666],[74.999,24.684],[74.861,24.799],[74.924,24.878],[75.119,24.882],[75.193,25.033],[75.334,25.041],[75.295,24.858],[75.19,24.754],[75.455,24.681],[75.646,24.685],[75.757,24.762],[75.915,24.572],[75.909,24.455],[75.747,24.423],[75.83,24.233],[75.751,24.143],[75.837,24.057],[75.702,23.967],[75.521,24.025],[75.459,23.921],[75.584,23.795],[75.981,23.929],[75.963,24.019],[76.127,24.088],[76.205,24.217],[76.471,24.226],[76.515,24.163],[76.695,24.284],[76.802,24.117],[76.946,24.206],[76.863,24.273],[76.816,24.534],[76.978,24.461],[77.065,24.644],[76.964,24.757],[76.876,25.042],[77.31,25.081],[77.391,25.123],[77.371,25.408],[77.223,25.319],[76.78,25.316],[76.598,25.394],[76.516,25.528],[76.516,25.777],[76.779,25.939],[76.902,26.094],[77.204,26.23],[77.439,26.404],[77.833,26.561],[77.898,26.655],[78.095,26.679],[78.223,26.831],[78.272,26.921],[78.096,26.894],[77.761,26.933],[77.455,26.742],[77.398,26.83],[77.743,26.983],[77.519,27.067],[77.681,27.194],[77.34,27.527],[77.284,27.801],[77.045,27.822],[77.086,27.738],[76.891,27.695],[76.971,28.138],[76.875,28.218],[76.545,27.964],[76.357,28.144],[76.178,28.046],[76.225,27.833],[75.971,27.852],[75.946,28.108],[76.095,28.151],[75.918,28.372],[75.561,28.613],[75.391,29.063],[75.411,29.256],[75.12,29.223],[74.851,29.404],[74.607,29.354],[74.543,29.468],[74.616,29.752],[74.477,29.745],[74.527,29.943]]]},"properties":{"state":"Rajasthan"}},
{"type":"Feature","geometry":{"type":"Polygon","coordinates":[[[88.746,27.142],[88.913,27.29],[88.783,27.45],[88.883,27.891],[88.756,28.076],[88.629,28.124],[88.545,28.034],[88.251,27.942],[88.145,27.964],[88.198,27.79],[88.045,27.479],[88.015,27.212],[88.154,27.11],[88.431,27.079],[88.589,27.189],[88.746,27.142]]]},"properties":{"state":"Sikkim"}},
{"type":"Feature","geometry":{"type":"Polygon","coordinates":[[[92.212,24.504],[92.111,24.383],[91.972,24.383],[91.91,24.141],[91.747,24.245],[91.631,24.104],[91.376,24.106],[91.166,23.75],[91.161,23.595],[91.254,23.488],[91.347,23.102],[91.454,23.26],[91.625,22.943],[91.812,23.066],[91.764,23.31],[91.974,23.481],[91.937,23.691],[92.075,23.647],[92.265,23.725],[92.332,24.152],[92.292,24.25],[92.212,24.504]]]},"properties":{"state":"Tripura"}},
{"type":"Feature","geometry":{"type":"Polygon","coordinates":[[[80.065,28.837],[80.145,29.103],[80.27,29.14],[80.316,29.315],[80.244,29.447],[80.42,29.63],[80.407,29.794],[80.553,29.849],[80.998,30.268],[80.805,30.323],[80.209,30.588],[80.248,30.719],[79.753,31.006],[79.601,30.939],[79.427,31.024],[79.222,31.263],[79.139,31.433],[79.016,31.423],[78.882,31.287],[79.009,31.11],[78.81,31.198],[78.484,31.199],[78.384,31.282],[77.811,31.059],[77.704,30.766],[77.819,30.508],[77.576,30.397],[77.959,30.245],[77.801,30.096],[77.715,29.884],[77.83,29.668],[77.926,29.714],[77.973,29.58],[78.336,29.797],[78.517,29.719],[78.565,29.601],[78.925,29.434],[78.731,29.314],[78.919,29.135],[79.153,29.116],[79.171,29.012],[79.372,28.986],[79.426,28.866],[79.707,28.841],[79.829,28.885],[79.954,28.723],[80.065,28.837]]]},"properties":{"state":"Uttarakhand"}},
{"type":"Feature","geometry":{"type":"Polygon","coordinates":[[[78.611,19.816],[78.365,19.781],[78.364,19.779],[78.276,19.692],[78.309,19.481],[78.192,19.407],[78.175,19.238],[77.944,19.343],[77.863,19.304],[77.772,18.979],[77.949,18.843],[77.73,18.667],[77.739,18.557],[77.596,18.549],[77.551,18.292],[77.648,17.999],[77.452,17.695],[77.443,17.584],[77.689,17.475],[77.513,17.431],[77.362,17.164],[77.502,17.009],[77.419,16.669],[77.461,16.585],[77.288,16.409],[77.588,16.333],[77.505,16.276],[77.513,15.927],[78.099,15.836],[78.408,16.075],[78.61,16.087],[78.736,16.008],[78.889,16.085],[79.009,16.24],[79.215,16.226],[79.259,16.567],[79.789,16.729],[79.965,16.645],[80.073,16.817],[80.055,16.971],[80.284,17.007],[80.322,16.88],[80.57,16.768],[80.602,16.919],[80.363,16.976],[80.58,17.153],[80.876,17.075],[80.919,17.22],[81.171,17.231],[81.313,17.408],[81.015,17.522],[80.886,17.736],[81.086,17.798],[81.008,17.798],[80.958,18.177],[80.867,18.14],[80.735,18.413],[80.457,18.63],[80.347,18.595],[80.273,18.723],[80.112,18.683],[79.914,18.826],[79.938,19.041],[79.87,19.042],[79.98,19.39],[79.744,19.609],[79.516,19.52],[79.514,19.519],[79.251,19.616],[79.222,19.468],[78.94,19.552],[78.955,19.656],[78.841,19.762],[78.613,19.815],[78.611,19.816]]]},"properties":{"state":"Telangana"}},
{"type":"Feature","geometry":{"type":"Polygon","coordinates":[[[88.105,26.551],[87.997,26.365],[87.899,26.479],[87.588,26.382],[87.464,26.44],[87.34,26.348],[87.091,26.451],[87.071,26.587],[86.73,26.423],[86.341,26.606],[86.028,26.666],[85.858,26.569],[85.724,26.674],[85.735,26.796],[85.624,26.874],[85.334,26.742],[85.193,26.867],[84.645,27.046],[84.69,27.222],[84.62,27.339],[84.279,27.396],[84.098,27.517],[84.046,27.446],[83.831,27.427],[83.864,27.344],[83.994,27.175],[84.083,26.877],[84.219,26.871],[84.42,26.626],[84.087,26.639],[83.911,26.45],[84.176,26.373],[84.177,26.265],[84.019,26.239],[84.056,26.1],[84.312,25.944],[84.534,25.876],[84.635,25.728],[84.561,25.684],[84.337,25.744],[84.324,25.67],[84.089,25.713],[84.081,25.636],[83.876,25.518],[83.768,25.386],[83.357,25.2],[83.391,24.789],[83.53,24.642],[83.503,24.525],[83.933,24.547],[83.998,24.638],[84.111,24.477],[84.297,24.56],[84.291,24.466],[84.501,24.288],[84.583,24.413],[84.802,24.531],[84.909,24.384],[85.099,24.374],[85.282,24.52],[85.678,24.591],[85.735,24.82],[85.97,24.733],[86.055,24.78],[86.158,24.587],[86.323,24.586],[86.276,24.466],[86.445,24.368],[86.528,24.544],[87.051,24.609],[87.146,25.009],[87.296,25.089],[87.328,25.224],[87.478,25.194],[87.552,25.333],[87.711,25.258],[87.852,25.295],[87.764,25.386],[88.021,25.572],[88.05,25.702],[87.831,25.871],[87.855,26.035],[88.256,26.332],[88.258,26.332],[88.105,26.551]]]},"properties":{"state":"Bihar"}},
{"type":"Feature","geometry":{"type":"Polygon","coordinates":[[[76.431,11.666],[76.112,11.979],[76.003,11.931],[75.83,11.984],[75.431,12.308],[75.366,12.457],[75.161,12.673],[74.87,12.761],[75.204,12.006],[75.252,12.009],[75.531,11.704],[75.537,11.694],[75.83,11.117],[75.922,10.761],[76.117,10.334],[76.26,9.883],[76.316,9.503],[76.542,8.913],[76.968,8.41],[77.098,8.292],[77.284,8.547],[77.191,8.742],[77.264,8.842],[77.147,9.021],[77.268,9.153],[77.283,9.301],[77.412,9.509],[77.325,9.598],[77.166,9.613],[77.273,9.964],[77.204,10.088],[77.288,10.232],[77.176,10.359],[76.983,10.221],[76.83,10.303],[76.839,10.596],[76.904,10.763],[76.831,10.871],[76.659,10.931],[76.748,11.135],[76.707,11.238],[76.458,11.188],[76.548,11.359],[76.234,11.571],[76.431,11.666]]]},"properties":{"state":"Kerala"}},
{"type":"Feature","geometry":{"type":"Polygon","coordinates":[[[82.81,23.963],[82.728,24.136],[82.768,24.371],[82.671,24.697],[82.407,24.683],[82.416,24.591],[81.903,24.893],[81.908,24.98],[81.513,25.177],[81.499,25.077],[81.278,25.166],[81.21,24.923],[80.95,24.964],[80.83,24.918],[80.869,25.117],[80.448,25.079],[80.264,25.424],[80.005,25.267],[79.851,25.227],[79.862,25.096],[79.56,25.17],[79.124,25.111],[78.962,25.343],[78.809,25.272],[78.939,25.557],[78.732,25.46],[78.775,25.353],[78.602,25.409],[78.497,25.319],[78.578,25.253],[78.636,24.959],[78.771,24.857],[78.752,24.599],[78.883,24.641],[78.994,24.423],[78.888,24.227],[78.789,24.177],[78.502,24.39],[78.392,24.263],[78.227,24.534],[78.277,24.662],[78.172,24.878],[78.458,25.165],[78.301,25.36],[78.491,25.578],[78.81,25.619],[78.763,25.72],[79.013,26.09],[78.952,26.129],[79.135,26.325],[79.135,26.44],[79.007,26.549],[78.993,26.677],[78.816,26.762],[78.578,26.748],[78.361,26.869],[78.223,26.831],[78.095,26.679],[77.898,26.655],[77.833,26.561],[77.439,26.404],[77.204,26.23],[76.902,26.094],[76.779,25.939],[76.516,25.777],[76.516,25.528],[76.598,25.394],[76.78,25.316],[77.223,25.319],[77.371,25.408],[77.391,25.123],[77.31,25.081],[76.876,25.042],[76.964,24.757],[77.065,24.644],[76.978,24.461],[76.816,24.534],[76.863,24.273],[76.946,24.206],[76.802,24.117],[76.695,24.284],[76.515,24.163],[76.471,24.226],[76.205,24.217],[76.127,24.088],[75.963,24.019],[75.981,23.929],[75.584,23.795],[75.459,23.921],[75.521,24.025],[75.702,23.967],[75.837,24.057],[75.751,24.143],[75.83,24.233],[75.747,24.423],[75.909,24.455],[75.915,24.572],[75.757,24.762],[75.646,24.685],[75.455,24.681],[75.19,24.754],[75.295,24.858],[75.334,25.041],[75.193,25.033],[75.119,24.882],[74.924,24.878],[74.861,24.799],[74.999,24.684],[74.814,24.666],[74.709,24.486],[74.854,24.444],[74.778,24.239],[74.868,24.243],[74.929,23.954],[74.905,23.625],[74.575,23.423],[74.544,23.28],[74.677,23.274],[74.539,23.103],[74.324,23.061],[74.465,22.816],[74.379,22.635],[74.277,22.646],[74.105,22.43],[74.267,22.405],[74.19,22.32],[74.072,22.361],[74.147,21.953],[74.281,21.933],[74.432,22.03],[74.513,21.932],[74.505,21.726],[74.582,21.665],[75.052,21.566],[75.207,21.413],[75.716,21.388],[76.096,21.371],[76.192,21.087],[76.384,21.076],[76.493,21.194],[76.623,21.185],[76.621,21.332],[76.796,21.489],[76.784,21.574],[77.281,21.759],[77.479,21.77],[77.575,21.526],[77.426,21.538],[77.492,21.374],[77.883,21.376],[78.176,21.499],[78.182,21.557],[78.427,21.6],[78.728,21.462],[78.941,21.511],[78.933,21.593],[78.936,21.593],[79.224,21.649],[79.231,21.722],[79.496,21.674],[79.54,21.543],[79.733,21.603],[80.001,21.534],[80.254,21.625],[80.396,21.405],[80.66,21.334],[80.735,21.461],[80.715,21.666],[80.815,21.755],[80.908,22.11],[80.995,22.049],[81.023,22.229],[81.118,22.291],[81.11,22.436],[81.327,22.526],[81.396,22.44],[81.622,22.538],[81.772,22.676],[81.776,22.874],[81.921,23.041],[82.161,23.143],[82.199,23.314],[81.987,23.414],[81.923,23.533],[81.746,23.57],[81.639,23.478],[81.62,23.651],[81.696,23.721],[81.61,23.904],[81.815,23.806],[82.009,23.861],[82.551,23.791],[82.81,23.963]]]},"properties":{"state":"Madhya Pradesh"}},
{"type":"Feature","geometry":{"type":"MultiPolygon","coordinates":[[[[93.837,7.24],[93.664,7.178],[93.657,7.047],[93.801,6.763],[93.904,6.835],[93.925,7.01],[93.837,7.24]]],[[[93.7,7.446],[93.636,7.244],[93.743,7.377],[93.7,7.446]]],[[[92.521,10.898],[92.378,10.783],[92.382,10.539],[92.531,10.521],[92.597,10.681],[92.521,10.898]]],[[[93.512,8.235],[93.45,8.18],[93.483,8.002],[93.512,8.235]]],[[[92.639,11.511],[92.601,11.346],[92.689,11.37],[92.639,11.511]]],[[[93.03,13.568],[92.871,13.472],[92.788,13.02],[92.801,12.9],[92.873,12.884],[92.87,12.935],[92.914,13.052],[93.033,13.082],[93.03,13.568]]],[[[92.81,12.313],[92.771,12.313],[92.763,12.064],[92.891,12.267],[92.81,12.313]]],[[[92.696,12.239],[92.624,12.108],[92.614,11.831],[92.561,11.947],[92.553,11.718],[92.711,11.488],[92.787,11.874],[92.782,12.045],[92.748,12.055],[92.734,12.103],[92.756,12.178],[92.696,12.239]]],[[[92.901,12.911],[92.874,12.881],[92.844,12.875],[92.79,12.89],[92.723,12.828],[92.7,12.327],[92.871,12.33],[92.972,12.531],[92.979,12.709],[92.901,12.911]]]]},"properties":{"state":"Andaman & Nicobar"}},
{"type":"Feature","geometry":{"type":"MultiPolygon","coordinates":[[[[72.362,22.029],[72.321,21.82],[72.439,21.93],[72.362,22.029]]],[[[73.165,24.096],[73.067,24.195],[73.152,24.354],[73.086,24.498],[72.978,24.373],[72.733,24.364],[72.681,24.465],[72.165,24.621],[72.085,24.707],[71.94,24.636],[71.939,24.636],[71.736,24.66],[71.731,24.66],[71.478,24.68],[71.299,24.624],[71.112,24.676],[70.986,24.595],[70.998,24.444],[71.103,24.436],[70.909,24.263],[70.714,24.215],[70.571,24.251],[70.573,24.422],[70.11,24.295],[70.025,24.171],[69.732,24.171],[69.594,24.293],[68.857,24.214],[68.765,24.296],[68.75,23.971],[68.345,23.972],[68.208,23.875],[68.119,23.616],[68.31,23.579],[68.657,23.151],[69.195,22.839],[69.713,22.806],[70.083,22.922],[70.312,23.215],[70.505,23.177],[70.712,23.214],[70.418,22.84],[70.376,22.908],[70.125,22.553],[69.804,22.464],[69.617,22.345],[69.544,22.377],[69.135,22.224],[69.195,22.422],[69.034,22.394],[68.954,22.245],[69.282,21.896],[69.708,21.535],[70.048,21.157],[70.426,20.863],[70.743,20.72],[70.92,20.743],[71.007,20.737],[71.149,20.758],[71.511,20.945],[72.112,21.2],[72.084,21.246],[72.309,21.639],[72.177,21.804],[72.373,22.316],[72.427,22.21],[72.516,22.321],[72.764,22.234],[72.567,22.182],[72.509,21.944],[72.622,21.809],[72.528,21.678],[72.728,21.686],[72.612,21.585],[72.706,21.527],[72.601,21.323],[72.632,21.082],[72.702,21.096],[72.84,20.804],[72.898,20.583],[72.856,20.467],[72.821,20.368],[72.737,20.135],[72.859,20.225],[72.899,20.228],[72.933,20.216],[72.95,20.216],[72.962,20.209],[72.963,20.209],[72.965,20.212],[72.966,20.219],[72.966,20.221],[72.966,20.222],[72.912,20.269],[73.105,20.35],[73.098,20.229],[73.098,20.228],[73.211,20.12],[73.417,20.198],[73.403,20.386],[73.475,20.72],[73.67,20.563],[73.838,20.621],[73.942,20.742],[73.868,20.986],[73.703,21.118],[73.612,21.138],[73.617,21.143],[73.577,21.156],[73.583,21.161],[73.577,21.171],[73.607,21.179],[73.606,21.172],[73.607,21.163],[73.607,21.162],[73.607,21.161],[73.63,21.153],[73.63,21.152],[73.63,21.151],[73.627,21.143],[73.665,21.147],[73.664,21.152],[73.676,21.153],[73.675,21.153],[73.702,21.154],[73.943,21.3],[74.05,21.453],[74.321,21.498],[74.33,21.553],[74.082,21.549],[74.054,21.559],[74.055,21.55],[74.053,21.548],[74.053,21.547],[74.05,21.548],[74.051,21.545],[74.049,21.545],[74.049,21.544],[74.047,21.545],[74.048,21.545],[74.043,21.546],[74.043,21.545],[74.037,21.545],[74.038,21.545],[74.038,21.549],[74.038,21.551],[74.034,21.548],[74.035,21.546],[74.01,21.549],[74.011,21.549],[74,21.545],[74.002,21.542],[73.995,21.538],[73.995,21.539],[73.996,21.539],[73.993,21.541],[73.993,21.542],[73.974,21.543],[73.974,21.539],[73.974,21.538],[73.974,21.537],[73.982,21.522],[73.955,21.54],[73.955,21.535],[73.954,21.534],[73.956,21.525],[73.954,21.524],[73.955,21.52],[73.952,21.518],[73.952,21.517],[73.951,21.515],[73.952,21.513],[73.951,21.513],[73.951,21.512],[73.94,21.515],[73.94,21.514],[73.932,21.512],[73.932,21.513],[73.929,21.52],[73.929,21.523],[73.921,21.523],[73.921,21.52],[73.904,21.524],[73.905,21.519],[73.905,21.516],[73.873,21.51],[73.873,21.511],[73.869,21.511],[73.869,21.513],[73.864,21.512],[73.873,21.506],[73.864,21.5],[73.865,21.499],[73.864,21.498],[73.863,21.498],[73.863,21.499],[73.85,21.503],[73.846,21.508],[73.788,21.634],[73.888,21.653],[73.796,21.825],[74.147,21.953],[74.072,22.361],[74.19,22.32],[74.267,22.405],[74.105,22.43],[74.277,22.646],[74.379,22.635],[74.465,22.816],[74.324,23.061],[74.139,23.266],[73.819,23.438],[73.627,23.448],[73.656,23.621],[73.523,23.607],[73.354,23.852],[73.42,23.925],[73.327,24.11],[73.239,24.004],[73.167,24.095],[73.165,24.096]]]]},"properties":{"state":"Gujarat"}},
{"type":"Feature","geometry":{"type":"Polygon","coordinates":[[[73.054,8.273],[73.019,8.27],[73.043,8.264],[73.054,8.273]]]},"properties":{"state":"Lakshadweep"}},
{"type":"Feature","geometry":{"type":"Polygon","coordinates":[[[84.765,19.077],[84.848,19.201],[85.307,19.562],[85.679,19.745],[86.373,19.958],[86.52,20.17],[86.783,20.33],[86.789,20.534],[87.056,20.715],[86.852,21.095],[86.945,21.353],[87.148,21.509],[87.394,21.533],[87.486,21.61],[87.444,21.768],[87.264,21.819],[87.17,21.979],[87.099,21.866],[87.002,21.913],[87.028,22.038],[86.722,22.147],[86.727,22.217],[86.504,22.343],[86.442,22.303],[86.283,22.448],[86.069,22.556],[85.973,22.506],[86.031,22.193],[85.901,21.983],[85.412,22.162],[85.214,22.049],[84.984,22.093],[84.984,22.095],[85.118,22.318],[85.057,22.486],[84.909,22.423],[84.503,22.42],[84.291,22.343],[84.154,22.411],[84.152,22.413],[84.009,22.526],[84.005,22.374],[83.628,22.204],[83.537,22.044],[83.579,21.833],[83.493,21.818],[83.338,21.502],[83.39,21.343],[83.273,21.38],[83.198,21.145],[82.99,21.182],[82.637,21.148],[82.63,21.04],[82.47,20.834],[82.34,20.847],[82.334,20.569],[82.438,20.434],[82.401,20.055],[82.718,19.989],[82.704,19.832],[82.418,19.904],[82.345,19.836],[82.269,19.975],[81.946,20.105],[81.852,19.923],[82.066,19.783],[82.029,19.508],[82.189,19.428],[82.188,19.335],[82.188,19.334],[82.158,19.265],[82.246,18.919],[82.156,18.785],[81.896,18.629],[81.963,18.595],[81.531,18.265],[81.481,18.053],[81.481,18.051],[81.396,17.82],[81.619,17.824],[82.007,18.058],[82.145,18.053],[82.147,18.052],[82.244,17.994],[82.35,18.078],[82.309,18.205],[82.363,18.422],[82.481,18.549],[82.603,18.383],[82.587,18.276],[82.769,18.338],[82.814,18.452],[82.938,18.362],[83.075,18.404],[83.077,18.529],[82.999,18.621],[83.137,18.786],[83.21,18.74],[83.413,18.874],[83.309,19],[83.468,18.97],[83.638,19.153],[83.793,19.019],[83.891,18.815],[84.089,18.758],[84.319,18.788],[84.514,19.049],[84.696,19.127],[84.765,19.077]]]},"properties":{"state":"Odisha"}},
{"type":"Feature","geometry":{"type":"Polygon","coordinates":[[[73.211,20.12],[73.098,20.228],[73.098,20.229],[73.105,20.35],[72.912,20.269],[72.966,20.222],[72.966,20.221],[72.966,20.219],[72.965,20.212],[72.963,20.209],[72.962,20.209],[72.961,20.209],[72.961,20.208],[72.96,20.2],[72.963,20.182],[72.977,20.181],[72.96,20.134],[73.192,20.049],[73.211,20.12]]]},"properties":{"state":"Dadra and Nagar Haveli and Daman and Diu"}},
{"type":"Feature","geometry":{"type":"Polygon","coordinates":[[[75.36,34.521],[75.209,34.636],[75.245,34.79],[75.096,34.901],[74.91,34.777],[74.665,34.902],[74.44,35.118],[74.253,35.037],[74.133,35.107],[74.073,34.941],[73.917,34.814],[73.731,34.771],[73.639,34.566],[73.456,34.578],[73.408,34.386],[73.585,33.899],[73.561,33.621],[73.619,33.577],[73.558,33.368],[73.657,33.205],[73.627,33.09],[73.806,32.971],[73.957,32.987],[74.383,32.758],[74.622,32.76],[74.681,32.492],[74.947,32.447],[75.027,32.496],[75.376,32.335],[75.687,32.391],[75.73,32.453],[75.778,32.466],[75.802,32.486],[75.823,32.495],[75.832,32.503],[75.832,32.511],[75.834,32.515],[75.841,32.524],[75.876,32.55],[75.904,32.695],[75.904,32.769],[75.891,32.783],[75.801,32.886],[75.954,32.873],[76.112,33.006],[76.247,33.022],[76.41,33.187],[76.747,33.179],[76.776,33.22],[76.779,33.24],[76.774,33.242],[76.772,33.247],[76.772,33.249],[76.771,33.25],[76.771,33.249],[76.77,33.249],[76.769,33.249],[76.768,33.248],[76.754,33.249],[76.737,33.261],[76.717,33.329],[76.671,33.342],[76.629,33.435],[76.384,33.552],[76.226,33.547],[76.285,33.662],[76.202,33.773],[76.201,33.775],[76.02,33.975],[75.841,33.954],[75.596,34.197],[75.406,34.284],[75.367,34.391],[75.366,34.392],[75.372,34.407],[75.352,34.514],[75.36,34.521]]]},"properties":{"state":"Jammu & Kashmir"}},
{"type":"Feature","geometry":{"type":"Polygon","coordinates":[[[83.33,24.102],[83.141,23.885],[82.954,23.871],[82.81,23.963],[82.551,23.791],[82.009,23.861],[81.815,23.806],[81.61,23.904],[81.696,23.721],[81.62,23.651],[81.639,23.478],[81.746,23.57],[81.923,23.533],[81.987,23.414],[82.199,23.314],[82.161,23.143],[81.921,23.041],[81.776,22.874],[81.772,22.676],[81.622,22.538],[81.396,22.44],[81.327,22.526],[81.11,22.436],[81.118,22.291],[81.023,22.229],[80.995,22.049],[80.908,22.11],[80.815,21.755],[80.715,21.666],[80.735,21.461],[80.66,21.334],[80.643,21.25],[80.464,21.175],[80.426,21.006],[80.542,20.93],[80.632,20.598],[80.626,20.333],[80.395,20.245],[80.552,20.118],[80.506,19.871],[80.676,19.699],[80.67,19.609],[80.837,19.563],[80.838,19.562],[80.853,19.364],[80.623,19.306],[80.579,19.401],[80.328,19.135],[80.274,18.932],[80.351,18.815],[80.273,18.723],[80.347,18.595],[80.457,18.63],[80.735,18.413],[80.867,18.14],[80.958,18.177],[81.008,17.798],[81.086,17.798],[81.166,17.858],[81.396,17.82],[81.481,18.051],[81.481,18.053],[81.531,18.265],[81.963,18.595],[81.896,18.629],[82.156,18.785],[82.246,18.919],[82.158,19.265],[82.188,19.334],[82.188,19.335],[82.189,19.428],[82.029,19.508],[82.066,19.783],[81.852,19.923],[81.946,20.105],[82.269,19.975],[82.345,19.836],[82.418,19.904],[82.704,19.832],[82.718,19.989],[82.401,20.055],[82.438,20.434],[82.334,20.569],[82.34,20.847],[82.47,20.834],[82.63,21.04],[82.637,21.148],[82.99,21.182],[83.198,21.145],[83.273,21.38],[83.39,21.343],[83.338,21.502],[83.493,21.818],[83.579,21.833],[83.537,22.044],[83.628,22.204],[84.005,22.374],[84.009,22.526],[84.238,22.692],[84.38,22.972],[84.149,22.965],[84.032,23.158],[84.051,23.375],[83.969,23.367],[84.014,23.634],[83.94,23.571],[83.772,23.611],[83.708,23.817],[83.569,23.867],[83.516,24.027],[83.33,24.102]]]},"properties":{"state":"Chhattisgarh"}},
{"type":"Feature","geometry":{"type":"Polygon","coordinates":[[[77.21,28.858],[76.942,28.798],[76.968,28.7],[76.845,28.55],[77.121,28.496],[77.174,28.405],[77.345,28.513],[77.326,28.71],[77.21,28.858]]]},"properties":{"state":"Delhi"}},
{"type":"Feature","geometry":{"type":"Polygon","coordinates":[[[74.118,15.652],[73.99,15.613],[73.939,15.743],[73.675,15.727],[73.871,15.371],[73.98,15.056],[74.086,14.901],[74.297,15.041],[74.326,15.283],[74.252,15.654],[74.118,15.652]]]},"properties":{"state":"Goa"}},
{"type":"Feature","geometry":{"type":"Polygon","coordinates":[[[77.586,30.38],[77.212,30.465],[77.123,30.563],[77.167,30.684],[77.03,30.734],[76.917,30.901],[76.777,30.904],[76.838,30.755],[76.829,30.681],[76.926,30.61],[76.886,30.43],[76.603,30.252],[76.547,30.076],[76.21,30.155],[76.186,29.892],[76.244,29.852],[75.984,29.727],[75.835,29.814],[75.58,29.739],[75.462,29.808],[75.235,29.542],[75.21,29.833],[74.99,29.868],[74.806,29.992],[74.654,29.906],[74.527,29.943],[74.477,29.745],[74.616,29.752],[74.543,29.468],[74.607,29.354],[74.851,29.404],[75.12,29.223],[75.411,29.256],[75.391,29.063],[75.561,28.613],[75.918,28.372],[76.095,28.151],[75.946,28.108],[75.971,27.852],[76.225,27.833],[76.178,28.046],[76.357,28.144],[76.545,27.964],[76.875,28.218],[76.971,28.138],[76.891,27.695],[77.086,27.738],[77.045,27.822],[77.284,27.801],[77.529,27.926],[77.478,28.419],[77.345,28.513],[77.174,28.405],[77.121,28.496],[76.845,28.55],[76.968,28.7],[76.942,28.798],[77.21,28.858],[77.134,29.095],[77.16,29.337],[77.086,29.584],[77.186,29.908],[77.406,30.089],[77.586,30.38]]]},"properties":{"state":"Haryana"}},
{"type":"Feature","geometry":{"type":"Polygon","coordinates":[[[76.794,33.256],[76.776,33.254],[76.774,33.253],[76.772,33.251],[76.771,33.25],[76.771,33.249],[76.772,33.249],[76.772,33.247],[76.774,33.242],[76.779,33.24],[76.776,33.22],[76.747,33.179],[76.41,33.187],[76.247,33.022],[76.112,33.006],[75.954,32.873],[75.801,32.886],[75.891,32.783],[75.904,32.769],[75.904,32.695],[75.916,32.613],[75.876,32.55],[75.834,32.512],[75.845,32.507],[75.858,32.484],[75.921,32.429],[75.618,32.237],[75.601,32.093],[75.892,31.962],[76.017,31.634],[76.275,31.301],[76.372,31.408],[76.612,31.25],[76.625,30.999],[76.777,30.904],[76.917,30.901],[77.03,30.734],[77.167,30.684],[77.123,30.563],[77.212,30.465],[77.586,30.38],[77.576,30.397],[77.819,30.508],[77.704,30.766],[77.811,31.059],[78.384,31.282],[78.484,31.199],[78.81,31.198],[79.009,31.11],[78.882,31.287],[78.778,31.313],[78.731,31.532],[78.847,31.608],[78.706,31.774],[78.781,31.993],[78.612,32.119],[78.611,32.212],[78.455,32.242],[78.535,32.414],[78.313,32.574],[78.388,32.757],[78.276,32.699],[78.204,32.667],[78.016,32.62],[77.933,32.728],[77.911,32.773],[77.694,32.984],[77.605,32.943],[77.588,32.921],[77.388,32.864],[77.317,32.852],[77.15,32.978],[76.95,33.02],[76.83,33.146],[76.794,33.256]]]},"properties":{"state":"Himachal Pradesh"}},
{"type":"Feature","geometry":{"type":"Polygon","coordinates":[[[87.711,25.258],[87.552,25.333],[87.478,25.194],[87.328,25.224],[87.296,25.089],[87.146,25.009],[87.051,24.609],[86.528,24.544],[86.445,24.368],[86.276,24.466],[86.323,24.586],[86.158,24.587],[86.055,24.78],[85.97,24.733],[85.735,24.82],[85.678,24.591],[85.282,24.52],[85.099,24.374],[84.909,24.384],[84.802,24.531],[84.583,24.413],[84.501,24.288],[84.291,24.466],[84.297,24.56],[84.111,24.477],[83.998,24.638],[83.933,24.547],[83.503,24.525],[83.402,24.503],[83.457,24.365],[83.33,24.102],[83.516,24.027],[83.569,23.867],[83.708,23.817],[83.772,23.611],[83.94,23.571],[84.014,23.634],[83.969,23.367],[84.051,23.375],[84.032,23.158],[84.149,22.965],[84.38,22.972],[84.238,22.692],[84.009,22.526],[84.152,22.413],[84.154,22.411],[84.291,22.343],[84.503,22.42],[84.909,22.423],[85.057,22.486],[85.118,22.318],[84.984,22.095],[84.984,22.093],[85.214,22.049],[85.412,22.162],[85.901,21.983],[86.031,22.193],[85.973,22.506],[86.069,22.556],[86.283,22.448],[86.442,22.303],[86.504,22.343],[86.727,22.217],[86.887,22.258],[86.765,22.427],[86.757,22.579],[86.432,22.775],[86.498,22.993],[86.371,22.998],[86.37,22.998],[86.186,23.005],[85.821,23.27],[85.876,23.481],[86.344,23.441],[86.345,23.441],[86.456,23.622],[86.457,23.623],[86.799,23.688],[86.916,23.883],[87.123,23.796],[87.293,23.959],[87.234,24.024],[87.491,24.018],[87.674,24.142],[87.675,24.142],[87.727,24.289],[87.729,24.288],[87.908,24.585],[87.843,24.769],[87.958,24.97],[87.795,25.09],[87.711,25.258]]]},"properties":{"state":"Jharkhand"}},
{"type":"Feature","geometry":{"type":"Polygon","coordinates":[[[79.874,12.043],[80.138,12.411],[80.255,12.783],[80.345,13.276],[80.268,13.564],[80.242,13.471],[80,13.542],[79.931,13.352],[79.731,13.283],[79.445,13.302],[79.365,13.131],[79.21,13.148],[79.185,13.03],[78.813,13.089],[78.621,12.991],[78.592,12.783],[78.472,12.632],[78.379,12.625],[78.231,12.761],[77.936,12.887],[77.796,12.835],[77.761,12.697],[77.599,12.667],[77.62,12.383],[77.472,12.21],[77.731,12.18],[77.776,12.119],[77.676,11.952],[77.493,11.941],[77.45,11.796],[76.908,11.795],[76.856,11.599],[76.431,11.666],[76.234,11.571],[76.548,11.359],[76.458,11.188],[76.707,11.238],[76.748,11.135],[76.659,10.931],[76.831,10.871],[76.904,10.763],[76.839,10.596],[76.83,10.303],[76.983,10.221],[77.176,10.359],[77.288,10.232],[77.204,10.088],[77.273,9.964],[77.166,9.613],[77.325,9.598],[77.412,9.509],[77.283,9.301],[77.268,9.153],[77.147,9.021],[77.264,8.842],[77.191,8.742],[77.284,8.547],[77.098,8.292],[77.331,8.127],[77.533,8.076],[77.794,8.162],[77.841,8.252],[78.143,8.502],[78.172,8.884],[78.415,9.114],[79.067,9.298],[78.903,9.463],[78.98,9.69],[79.266,10.039],[79.226,10.101],[79.381,10.316],[79.862,10.283],[79.841,10.828],[79.725,10.929],[79.854,10.983],[79.832,11.357],[79.757,11.558],[79.796,11.785],[79.807,11.834],[79.808,11.836],[79.692,11.951],[79.841,11.956],[79.857,12.007],[79.874,12.043]]]},"properties":{"state":"Tamil Nadu"}},
{"type":"Feature","geometry":{"type":"Polygon","coordinates":[[[80.065,28.837],[79.954,28.723],[79.829,28.885],[79.707,28.841],[79.426,28.866],[79.372,28.986],[79.171,29.012],[79.153,29.116],[78.919,29.135],[78.731,29.314],[78.925,29.434],[78.565,29.601],[78.517,29.719],[78.336,29.797],[77.973,29.58],[77.926,29.714],[77.83,29.668],[77.715,29.884],[77.801,30.096],[77.959,30.245],[77.576,30.397],[77.586,30.38],[77.406,30.089],[77.186,29.908],[77.086,29.584],[77.16,29.337],[77.134,29.095],[77.21,28.858],[77.326,28.71],[77.345,28.513],[77.478,28.419],[77.529,27.926],[77.284,27.801],[77.34,27.527],[77.681,27.194],[77.519,27.067],[77.743,26.983],[77.398,26.83],[77.455,26.742],[77.761,26.933],[78.096,26.894],[78.272,26.921],[78.223,26.831],[78.361,26.869],[78.578,26.748],[78.816,26.762],[78.993,26.677],[79.007,26.549],[79.135,26.44],[79.135,26.325],[78.952,26.129],[79.013,26.09],[78.763,25.72],[78.81,25.619],[78.491,25.578],[78.301,25.36],[78.458,25.165],[78.172,24.878],[78.277,24.662],[78.227,24.534],[78.392,24.263],[78.502,24.39],[78.789,24.177],[78.888,24.227],[78.994,24.423],[78.883,24.641],[78.752,24.599],[78.771,24.857],[78.636,24.959],[78.578,25.253],[78.497,25.319],[78.602,25.409],[78.775,25.353],[78.732,25.46],[78.939,25.557],[78.809,25.272],[78.962,25.343],[79.124,25.111],[79.56,25.17],[79.862,25.096],[79.851,25.227],[80.005,25.267],[80.264,25.424],[80.448,25.079],[80.869,25.117],[80.83,24.918],[80.95,24.964],[81.21,24.923],[81.278,25.166],[81.499,25.077],[81.513,25.177],[81.908,24.98],[81.903,24.893],[82.416,24.591],[82.407,24.683],[82.671,24.697],[82.768,24.371],[82.728,24.136],[82.81,23.963],[82.954,23.871],[83.141,23.885],[83.33,24.102],[83.457,24.365],[83.402,24.503],[83.503,24.525],[83.53,24.642],[83.391,24.789],[83.357,25.2],[83.768,25.386],[83.876,25.518],[84.081,25.636],[84.089,25.713],[84.324,25.67],[84.337,25.744],[84.561,25.684],[84.635,25.728],[84.534,25.876],[84.312,25.944],[84.056,26.1],[84.019,26.239],[84.177,26.265],[84.176,26.373],[83.911,26.45],[84.087,26.639],[84.42,26.626],[84.219,26.871],[84.083,26.877],[83.994,27.175],[83.864,27.344],[83.615,27.469],[83.388,27.479],[83.296,27.334],[83.188,27.454],[82.735,27.503],[82.709,27.722],[82.449,27.68],[82.07,27.923],[81.899,27.854],[81.366,28.141],[81.211,28.361],[80.915,28.458],[80.59,28.68],[80.522,28.576],[80.065,28.837]]]},"properties":{"state":"Uttar Pradesh"}},
{"type":"Feature","geometry":{"type":"MultiPolygon","coordinates":[[[[88.777,21.869],[88.714,21.902],[88.746,21.662],[88.777,21.869]]],[[[88.943,21.915],[88.823,21.918],[88.901,21.762],[88.943,21.915]]],[[[88.746,27.142],[88.589,27.189],[88.431,27.079],[88.154,27.11],[88.015,27.212],[87.995,27.131],[88.186,26.774],[88.105,26.551],[88.258,26.332],[88.256,26.332],[87.855,26.035],[87.831,25.871],[88.05,25.702],[88.021,25.572],[87.764,25.386],[87.852,25.295],[87.711,25.258],[87.795,25.09],[87.958,24.97],[87.843,24.769],[87.908,24.585],[87.729,24.288],[87.727,24.289],[87.675,24.142],[87.674,24.142],[87.491,24.018],[87.234,24.024],[87.293,23.959],[87.123,23.796],[86.916,23.883],[86.799,23.688],[86.457,23.623],[86.456,23.622],[86.345,23.441],[86.344,23.441],[85.876,23.481],[85.821,23.27],[86.186,23.005],[86.37,22.998],[86.371,22.998],[86.498,22.993],[86.432,22.775],[86.757,22.579],[86.765,22.427],[86.887,22.258],[86.727,22.217],[86.722,22.147],[87.028,22.038],[87.002,21.913],[87.099,21.866],[87.17,21.979],[87.264,21.819],[87.444,21.768],[87.486,21.61],[87.806,21.709],[88.187,22.105],[88.146,21.959],[88.257,21.557],[88.256,21.801],[88.46,21.929],[88.594,21.896],[88.751,22.059],[88.763,21.955],[89.008,21.903],[89.095,22.149],[88.984,22.331],[88.996,22.472],[88.912,22.758],[88.97,22.844],[88.856,22.962],[88.942,23.206],[88.719,23.255],[88.759,23.477],[88.562,23.636],[88.585,23.87],[88.733,23.911],[88.741,24.254],[88.559,24.308],[88.124,24.517],[88.024,24.688],[88.222,24.96],[88.331,24.872],[88.452,25.035],[88.475,25.213],[88.922,25.166],[89,25.295],[88.84,25.363],[88.811,25.523],[88.646,25.478],[88.24,25.811],[88.152,25.776],[88.086,25.914],[88.177,26.148],[88.522,26.376],[88.43,26.546],[88.703,26.329],[89.049,26.242],[88.91,26.37],[89.092,26.39],[89.155,26.139],[89.355,26.009],[89.588,25.98],[89.596,26.135],[89.72,26.166],[89.75,26.32],[89.869,26.452],[89.852,26.697],[89.37,26.857],[89.129,26.807],[89.018,26.937],[88.87,26.945],[88.864,27.11],[88.746,27.142]]]]},"properties":{"state":"West Bengal"}},
{"type":"Feature","geometry":{"type":"Polygon","coordinates":[[[84.765,19.077],[84.696,19.127],[84.514,19.049],[84.319,18.788],[84.089,18.758],[83.891,18.815],[83.793,19.019],[83.638,19.153],[83.468,18.97],[83.309,19],[83.413,18.874],[83.21,18.74],[83.137,18.786],[82.999,18.621],[83.077,18.529],[83.075,18.404],[82.938,18.362],[82.814,18.452],[82.769,18.338],[82.587,18.276],[82.603,18.383],[82.481,18.549],[82.363,18.422],[82.309,18.205],[82.35,18.078],[82.244,17.994],[82.147,18.052],[82.145,18.053],[82.007,18.058],[81.619,17.824],[81.396,17.82],[81.166,17.858],[81.086,17.798],[80.886,17.736],[81.015,17.522],[81.313,17.408],[81.171,17.231],[80.919,17.22],[80.876,17.075],[80.58,17.153],[80.363,16.976],[80.602,16.919],[80.57,16.768],[80.322,16.88],[80.284,17.007],[80.055,16.971],[80.073,16.817],[79.965,16.645],[79.789,16.729],[79.259,16.567],[79.215,16.226],[79.009,16.24],[78.889,16.085],[78.736,16.008],[78.61,16.087],[78.408,16.075],[78.099,15.836],[77.513,15.927],[77.249,15.965],[77.07,15.908],[77.03,15.635],[77.045,15.356],[77.168,15.259],[77.113,15.034],[76.985,15.015],[76.802,15.095],[76.867,14.97],[76.765,14.602],[76.868,14.474],[76.975,14.485],[76.885,14.348],[76.94,14.245],[77.115,14.223],[77.139,14.34],[77.504,14.264],[77.332,14.031],[77.141,14.004],[77.005,14.184],[76.895,14.168],[77.042,13.933],[76.976,13.817],[77.173,13.762],[77.132,13.846],[77.433,13.843],[77.455,13.682],[77.967,13.96],[78.115,13.863],[78.09,13.659],[78.407,13.577],[78.378,13.363],[78.587,13.281],[78.467,12.975],[78.251,12.857],[78.231,12.761],[78.379,12.625],[78.472,12.632],[78.592,12.783],[78.621,12.991],[78.813,13.089],[79.185,13.03],[79.21,13.148],[79.365,13.131],[79.445,13.302],[79.731,13.283],[79.931,13.352],[80,13.542],[80.242,13.471],[80.268,13.564],[80.255,13.779],[80.147,14.041],[80.13,14.22],[80.196,14.587],[80.114,14.737],[80.047,15.083],[80.111,15.346],[80.346,15.752],[80.649,15.879],[80.774,15.868],[80.831,15.707],[81.008,15.754],[81.148,15.979],[81.268,16.279],[81.503,16.355],[81.72,16.307],[82.311,16.561],[82.361,16.855],[82.248,16.905],[82.443,17.175],[82.703,17.344],[83.163,17.561],[83.347,17.728],[83.569,18.01],[84.126,18.311],[84.353,18.553],[84.765,19.077]]]},"properties":{"state":"Andhra Pradesh"}},
{"type":"Feature","geometry":{"type":"MultiPolygon","coordinates":[[[[79.854,10.983],[79.725,10.929],[79.841,10.828],[79.854,10.983]]],[[[79.841,11.956],[79.692,11.951],[79.808,11.836],[79.841,11.956]]]]},"properties":{"state":"Puducherry"}},
{"type":"Feature","geometry":{"type":"Polygon","coordinates":[[[75.716,21.388],[75.207,21.413],[75.052,21.566],[74.582,21.665],[74.505,21.726],[74.513,21.932],[74.432,22.03],[74.281,21.933],[74.147,21.953],[73.796,21.825],[73.888,21.653],[73.788,21.634],[73.846,21.508],[73.85,21.503],[73.863,21.499],[73.863,21.498],[73.864,21.498],[73.865,21.499],[73.864,21.5],[73.873,21.506],[73.864,21.512],[73.869,21.513],[73.869,21.511],[73.873,21.511],[73.873,21.51],[73.905,21.516],[73.905,21.519],[73.904,21.524],[73.921,21.52],[73.921,21.523],[73.929,21.523],[73.929,21.52],[73.932,21.513],[73.932,21.512],[73.94,21.514],[73.94,21.515],[73.951,21.512],[73.951,21.513],[73.952,21.513],[73.951,21.515],[73.952,21.517],[73.952,21.518],[73.955,21.52],[73.954,21.524],[73.956,21.525],[73.954,21.534],[73.955,21.535],[73.955,21.54],[73.982,21.522],[73.974,21.537],[73.974,21.538],[73.974,21.539],[73.974,21.543],[73.993,21.542],[73.993,21.541],[73.996,21.539],[73.995,21.539],[73.995,21.538],[74.002,21.542],[74,21.545],[74.011,21.549],[74.01,21.549],[74.035,21.546],[74.034,21.548],[74.038,21.551],[74.038,21.549],[74.038,21.545],[74.037,21.545],[74.043,21.545],[74.043,21.546],[74.048,21.545],[74.047,21.545],[74.049,21.544],[74.049,21.545],[74.051,21.545],[74.05,21.548],[74.053,21.547],[74.053,21.548],[74.055,21.55],[74.054,21.559],[74.082,21.549],[74.33,21.553],[74.321,21.498],[74.05,21.453],[73.943,21.3],[73.702,21.154],[73.675,21.153],[73.676,21.153],[73.664,21.152],[73.665,21.147],[73.627,21.143],[73.63,21.151],[73.63,21.152],[73.63,21.153],[73.607,21.161],[73.607,21.162],[73.607,21.163],[73.606,21.172],[73.607,21.179],[73.577,21.171],[73.583,21.161],[73.577,21.156],[73.617,21.143],[73.612,21.138],[73.703,21.118],[73.868,20.986],[73.942,20.742],[73.838,20.621],[73.67,20.563],[73.475,20.72],[73.403,20.386],[73.417,20.198],[73.211,20.12],[73.192,20.049],[72.96,20.134],[72.977,20.181],[72.963,20.182],[72.96,20.2],[72.961,20.208],[72.961,20.209],[72.962,20.209],[72.95,20.216],[72.933,20.216],[72.899,20.228],[72.859,20.225],[72.737,20.135],[72.664,19.934],[72.782,19.166],[72.803,18.905],[72.895,18.458],[72.99,18.287],[72.932,18.222],[73.136,17.707],[73.291,17.078],[73.277,16.892],[73.351,16.613],[73.312,16.536],[73.511,15.937],[73.675,15.727],[73.939,15.743],[73.99,15.613],[74.118,15.652],[74.126,15.718],[74.368,15.786],[74.503,16.225],[74.317,16.327],[74.316,16.554],[74.545,16.635],[74.687,16.607],[74.691,16.716],[74.92,16.773],[74.968,16.95],[75.089,16.952],[75.183,16.843],[75.28,16.957],[75.666,16.98],[75.654,17.274],[75.574,17.383],[75.633,17.477],[75.926,17.325],[76.12,17.37],[76.345,17.354],[76.331,17.596],[76.919,17.916],[76.952,18.188],[77.113,18.157],[77.242,18.413],[77.366,18.452],[77.357,18.32],[77.551,18.292],[77.596,18.549],[77.739,18.557],[77.73,18.667],[77.949,18.843],[77.772,18.979],[77.863,19.304],[77.944,19.343],[78.175,19.238],[78.192,19.407],[78.309,19.481],[78.276,19.692],[78.364,19.779],[78.365,19.781],[78.611,19.816],[78.613,19.815],[78.841,19.762],[78.955,19.656],[78.94,19.552],[79.222,19.468],[79.251,19.616],[79.514,19.519],[79.516,19.52],[79.744,19.609],[79.98,19.39],[79.87,19.042],[79.938,19.041],[79.914,18.826],[80.112,18.683],[80.273,18.723],[80.351,18.815],[80.274,18.932],[80.328,19.135],[80.579,19.401],[80.623,19.306],[80.853,19.364],[80.838,19.562],[80.837,19.563],[80.67,19.609],[80.676,19.699],[80.506,19.871],[80.552,20.118],[80.395,20.245],[80.626,20.333],[80.632,20.598],[80.542,20.93],[80.426,21.006],[80.464,21.175],[80.643,21.25],[80.66,21.334],[80.396,21.405],[80.254,21.625],[80.001,21.534],[79.733,21.603],[79.54,21.543],[79.496,21.674],[79.231,21.722],[79.224,21.649],[78.936,21.593],[78.933,21.593],[78.941,21.511],[78.728,21.462],[78.427,21.6],[78.182,21.557],[78.176,21.499],[77.883,21.376],[77.492,21.374],[77.426,21.538],[77.575,21.526],[77.479,21.77],[77.281,21.759],[76.784,21.574],[76.796,21.489],[76.621,21.332],[76.623,21.185],[76.493,21.194],[76.384,21.076],[76.192,21.087],[76.096,21.371],[75.716,21.388]]]},"properties":{"state":"Maharashtra"}},
{"type":"Feature","geometry":{"type":"Polygon","coordinates":[[[74.133,35.107],[74.253,35.037],[74.44,35.118],[74.665,34.902],[74.91,34.777],[75.096,34.901],[75.245,34.79],[75.209,34.636],[75.36,34.521],[75.352,34.514],[75.372,34.407],[75.366,34.392],[75.367,34.391],[75.406,34.284],[75.596,34.197],[75.841,33.954],[76.02,33.975],[76.201,33.775],[76.202,33.773],[76.285,33.662],[76.226,33.547],[76.384,33.552],[76.629,33.435],[76.671,33.342],[76.717,33.329],[76.737,33.261],[76.754,33.249],[76.768,33.248],[76.769,33.249],[76.77,33.249],[76.771,33.249],[76.771,33.25],[76.772,33.251],[76.776,33.254],[76.794,33.256],[76.83,33.146],[76.95,33.02],[77.15,32.978],[77.317,32.852],[77.388,32.864],[77.588,32.921],[77.605,32.943],[77.694,32.984],[77.911,32.773],[77.933,32.728],[78.016,32.62],[78.204,32.667],[78.276,32.699],[78.388,32.757],[78.442,32.57],[78.768,32.697],[78.826,32.438],[78.978,32.339],[79.317,32.59],[79.447,32.532],[79.625,32.737],[79.334,33.016],[79.453,33.258],[78.992,33.33],[78.918,33.633],[79.104,33.613],[78.904,33.972],[79.013,34.05],[79.418,34.014],[79.583,34.238],[79.507,34.474],[79.766,34.48],[79.77,34.622],[80.067,34.714],[80.182,35.166],[80.327,35.472],[80.293,35.602],[80.114,35.677],[79.998,35.837],[79.867,35.782],[79.416,35.899],[79.24,35.986],[79.138,35.838],[78.957,35.891],[78.657,35.853],[78.52,35.763],[78.272,35.721],[78.136,35.538],[77.965,35.587],[77.9,35.468],[77.449,35.462],[77.437,35.641],[77.118,35.796],[76.934,35.784],[76.722,35.953],[76.8,36.048],[76.636,36.184],[76.431,36.252],[76.068,36.477],[75.747,36.588],[75.615,36.761],[75.478,36.806],[75.344,37.051],[74.913,36.908],[74.708,37.077],[74.578,36.948],[74.428,36.989],[74.051,36.806],[73.689,36.911],[73.901,36.706],[73.7,36.684],[73.435,36.744],[73.13,36.688],[72.991,36.457],[72.681,36.262],[72.596,36.264],[72.533,35.917],[72.69,35.832],[72.83,35.887],[73.153,35.841],[73.136,35.719],[73.406,35.563],[73.785,35.524],[73.714,35.228],[73.916,35.212],[74.133,35.107]]]},"properties":{"state":"Ladakh"}}
]}